0 OPS 9443 (DSCS 2-13)
1 11621U 79098A   13283.49060974 -.00000169  00000-0  10000-3 0  9182
2 11621 016.4791 355.0509 0008503 042.2227 317.8540 00.95599865571134
0 OPS 9443 (DSCS 2-13)
1 11621U 79098A   13283.49064630  .00000000  00000-0  10000-3 0  9199
2 11621 016.4799 355.0505 0007968 038.3354 321.7399 00.95595265571135
0 OPS 9443 (DSCS 2-13)
1 11621U 79098A   13285.58259981 -.00000145  00000-0  10000-3 0  9197
2 11621 016.4792 355.0305 0008486 040.8153 319.2585 00.95599279571157
0 OPS 9443 (DSCS 2-13)
1 11621U 79098A   13287.67459558 -.00000104  00000-0  10000-3 0  9208
2 11621 016.4794 355.0102 0008499 042.8499 317.2181 00.95598461571177
0 OPS 9443 (DSCS 2-13)
1 11621U 79098A   13287.67460056 -.00000104  00000-0  10000-3 0  9214
2 11621 016.4793 355.0103 0008036 038.6972 321.3623 00.95598411571175
0 OPS 9443 (DSCS 2-13)
1 11621U 79098A   13288.72060574 -.00000099  00000-0  10000-3 0  9226
2 11621 016.4793 355.0000 0008053 039.2762 320.7814 00.95598322571181
0 OPS 9443 (DSCS 2-13)
1 11621U 79098A   13290.81261830 -.00000128  00000-0  10000-3 0  9231
2 11621 016.4794 354.9796 0008038 040.2615 319.7935 00.95598885571203
0 OPS 9443 (DSCS 2-13)
1 11621U 79098A   13294.99661496 -.00000154  00000-0  10000-3 0  9246
2 11621 016.4796 354.9385 0008016 039.7568 320.3009 00.95599446571243
